{"fetched_at":"2026-07-16T06:43:00.092Z","source":"https://celestrak.org/NORAD/elements/gp.php?NAME=HULIANWANG&FORMAT=JSON","constellation":"guowang","records":[{"OBJECT_NAME":"HULIANWANG DIGUI-12","OBJECT_ID":"2025-030B","EPOCH":"2026-07-15T21:17:25.675872","CLASSIFICATION_TYPE":"U","MEAN_MOTION":13.29322224,"ECCENTRICITY":0.00009555,"INCLINATION":50.0015,"RA_OF_ASC_NODE":133.0169,"ARG_OF_PERICENTER":274.6453,"MEAN_ANOMALY":85.431,"EPHEMERIS_TYPE":0,"NORAD_CAT_ID":62972,"ELEMENT_SET_NO":999,"REV_AT_EPOCH":6967,"BSTAR":0.000013911991,"MEAN_MOTION_DOT":-0.00000118,"MEAN_MOTION_DDOT":0},{"OBJECT_NAME":"HULIANWANG DIGUI-13","OBJECT_ID":"2025-030C","EPOCH":"2026-07-15T20:53:14.298432","CLASSIFICATION_TYPE":"U","MEAN_MOTION":13.29324418,"ECCENTRICITY":0.00007747,"INCLINATION":50.0018,"RA_OF_ASC_NODE":132.9448,"ARG_OF_PERICENTER":275.2108,"MEAN_ANOMALY":84.8676,"EPHEMERIS_TYPE":0,"NORAD_CAT_ID":62973,"ELEMENT_SET_NO":999,"REV_AT_EPOCH":6967,"BSTAR":0.000028715211,"MEAN_MOTION_DOT":-0.00000111,"MEAN_MOTION_DDOT":0},{"OBJECT_NAME":"HULIANWANG DIGUI-14","OBJECT_ID":"2025-030D","EPOCH":"2026-07-15T22:05:29.959296","CLASSIFICATION_TYPE":"U","MEAN_MOTION":13.29327472,"ECCENTRICITY":0.00007731,"INCLINATION":50.0024,"RA_OF_ASC_NODE":132.568,"ARG_OF_PERICENTER":278.9096,"MEAN_ANOMALY":81.1689,"EPHEMERIS_TYPE":0,"NORAD_CAT_ID":62974,"ELEMENT_SET_NO":999,"REV_AT_EPOCH":6968,"BSTAR":0.000010262092,"MEAN_MOTION_DOT":-0.00000119,"MEAN_MOTION_DDOT":0},{"OBJECT_NAME":"HULIANWANG DIGUI-15","OBJECT_ID":"2025-030E","EPOCH":"2026-07-15T22:29:30.295680","CLASSIFICATION_TYPE":"U","MEAN_MOTION":13.29324467,"ECCENTRICITY":0.00008601,"INCLINATION":50.0019,"RA_OF_ASC_NODE":132.6349,"ARG_OF_PERICENTER":278.8529,"MEAN_ANOMALY":81.2246,"EPHEMERIS_TYPE":0,"NORAD_CAT_ID":62975,"ELEMENT_SET_NO":999,"REV_AT_EPOCH":6968,"BSTAR":0.000034955151,"MEAN_MOTION_DOT":-0.00000108,"MEAN_MOTION_DDOT":0},{"OBJECT_NAME":"HULIANWANG DIGUI-16","OBJECT_ID":"2025-030F","EPOCH":"2026-07-15T21:53:35.004480","CLASSIFICATION_TYPE":"U","MEAN_MOTION":13.29325565,"ECCENTRICITY":0.00007372,"INCLINATION":50.0041,"RA_OF_ASC_NODE":132.5948,"ARG_OF_PERICENTER":277.3801,"MEAN_ANOMALY":82.6987,"EPHEMERIS_TYPE":0,"NORAD_CAT_ID":62976,"ELEMENT_SET_NO":999,"REV_AT_EPOCH":6968,"BSTAR":0.0000092195,"MEAN_MOTION_DOT":-0.0000012,"MEAN_MOTION_DDOT":0},{"OBJECT_NAME":"HULIANWANG DIGUI-17","OBJECT_ID":"2025-030G","EPOCH":"2026-07-15T21:41:24.693792","CLASSIFICATION_TYPE":"U","MEAN_MOTION":13.29325614,"ECCENTRICITY":0.0000855,"INCLINATION":50.0053,"RA_OF_ASC_NODE":132.6025,"ARG_OF_PERICENTER":269.5344,"MEAN_ANOMALY":90.543,"EPHEMERIS_TYPE":0,"NORAD_CAT_ID":62977,"ELEMENT_SET_NO":999,"REV_AT_EPOCH":6968,"BSTAR":-0.000008771682,"MEAN_MOTION_DOT":-0.00000128,"MEAN_MOTION_DDOT":0},{"OBJECT_NAME":"HULIANWANG DIGUI-18","OBJECT_ID":"2025-030H","EPOCH":"2026-07-15T21:29:21.358176","CLASSIFICATION_TYPE":"U","MEAN_MOTION":13.293276,"ECCENTRICITY":0.00008895,"INCLINATION":50.0058,"RA_OF_ASC_NODE":132.5736,"ARG_OF_PERICENTER":269.1283,"MEAN_ANOMALY":90.9487,"EPHEMERIS_TYPE":0,"NORAD_CAT_ID":62978,"ELEMENT_SET_NO":999,"REV_AT_EPOCH":6968,"BSTAR":0.000019665469,"MEAN_MOTION_DOT":-0.00000115,"MEAN_MOTION_DDOT":0},{"OBJECT_NAME":"HULIANWANG DIGUI-19","OBJECT_ID":"2025-030J","EPOCH":"2026-07-15T22:17:39.613344","CLASSIFICATION_TYPE":"U","MEAN_MOTION":13.29319044,"ECCENTRICITY":0.0000773,"INCLINATION":50.0043,"RA_OF_ASC_NODE":132.6894,"ARG_OF_PERICENTER":267.6874,"MEAN_ANOMALY":92.391,"EPHEMERIS_TYPE":0,"NORAD_CAT_ID":62979,"ELEMENT_SET_NO":999,"REV_AT_EPOCH":6968,"BSTAR":0.000012650577,"MEAN_MOTION_DOT":-0.00000118,"MEAN_MOTION_DDOT":0},{"OBJECT_NAME":"HULIANWANG DIGUI-20","OBJECT_ID":"2025-086A","EPOCH":"2026-07-15T23:02:02.482080","CLASSIFICATION_TYPE":"U","MEAN_MOTION":13.2441153,"ECCENTRICITY":0.0002046,"INCLINATION":86.5067,"RA_OF_ASC_NODE":303.4424,"ARG_OF_PERICENTER":112.3745,"MEAN_ANOMALY":247.7606,"EPHEMERIS_TYPE":0,"NORAD_CAT_ID":63687,"ELEMENT_SET_NO":999,"REV_AT_EPOCH":5868,"BSTAR":0.000025717227,"MEAN_MOTION_DOT":2.6e-7,"MEAN_MOTION_DDOT":0},{"OBJECT_NAME":"HULIANWANG DIGUI-21","OBJECT_ID":"2025-086B","EPOCH":"2026-07-15T21:24:10.363968","CLASSIFICATION_TYPE":"U","MEAN_MOTION":13.24410184,"ECCENTRICITY":0.00019771,"INCLINATION":86.5095,"RA_OF_ASC_NODE":303.5308,"ARG_OF_PERICENTER":115.6359,"MEAN_ANOMALY":244.4979,"EPHEMERIS_TYPE":0,"NORAD_CAT_ID":63688,"ELEMENT_SET_NO":999,"REV_AT_EPOCH":5866,"BSTAR":8.89003e-7,"MEAN_MOTION_DOT":1.5e-7,"MEAN_MOTION_DDOT":0},{"OBJECT_NAME":"HULIANWANG DIGUI-22","OBJECT_ID":"2025-086C","EPOCH":"2026-07-15T21:35:00.175776","CLASSIFICATION_TYPE":"U","MEAN_MOTION":13.24410516,"ECCENTRICITY":0.00020902,"INCLINATION":86.506,"RA_OF_ASC_NODE":303.3866,"ARG_OF_PERICENTER":111.9748,"MEAN_ANOMALY":248.1609,"EPHEMERIS_TYPE":0,"NORAD_CAT_ID":63689,"ELEMENT_SET_NO":999,"REV_AT_EPOCH":5866,"BSTAR":-0.000008656883,"MEAN_MOTION_DOT":1.1e-7,"MEAN_MOTION_DDOT":0},{"OBJECT_NAME":"HULIANWANG DIGUI-23","OBJECT_ID":"2025-086D","EPOCH":"2026-07-15T21:56:43.565568","CLASSIFICATION_TYPE":"U","MEAN_MOTION":13.24410271,"ECCENTRICITY":0.00020635,"INCLINATION":86.5101,"RA_OF_ASC_NODE":303.5714,"ARG_OF_PERICENTER":112.4839,"MEAN_ANOMALY":247.6514,"EPHEMERIS_TYPE":0,"NORAD_CAT_ID":63690,"ELEMENT_SET_NO":999,"REV_AT_EPOCH":5866,"BSTAR":0.000031096366,"MEAN_MOTION_DOT":2.8e-7,"MEAN_MOTION_DDOT":0},{"OBJECT_NAME":"HULIANWANG DIGUI-24","OBJECT_ID":"2025-086E","EPOCH":"2026-07-15T22:07:39.403776","CLASSIFICATION_TYPE":"U","MEAN_MOTION":13.24410923,"ECCENTRICITY":0.00020246,"INCLINATION":86.5108,"RA_OF_ASC_NODE":303.6041,"ARG_OF_PERICENTER":114.8079,"MEAN_ANOMALY":245.3265,"EPHEMERIS_TYPE":0,"NORAD_CAT_ID":63691,"ELEMENT_SET_NO":999,"REV_AT_EPOCH":5866,"BSTAR":0.000036030634,"MEAN_MOTION_DOT":3e-7,"MEAN_MOTION_DDOT":0},{"OBJECT_NAME":"HULIANWANG DIGUI-25","OBJECT_ID":"2025-086F","EPOCH":"2026-07-15T22:18:32.157504","CLASSIFICATION_TYPE":"U","MEAN_MOTION":13.24410276,"ECCENTRICITY":0.00019739,"INCLINATION":86.5047,"RA_OF_ASC_NODE":303.3452,"ARG_OF_PERICENTER":112.2675,"MEAN_ANOMALY":247.8668,"EPHEMERIS_TYPE":0,"NORAD_CAT_ID":63692,"ELEMENT_SET_NO":999,"REV_AT_EPOCH":5866,"BSTAR":0.00008011883,"MEAN_MOTION_DOT":4.9e-7,"MEAN_MOTION_DDOT":0},{"OBJECT_NAME":"HULIANWANG DIGUI-26","OBJECT_ID":"2025-086G","EPOCH":"2026-07-15T21:45:51.095232","CLASSIFICATION_TYPE":"U","MEAN_MOTION":13.24409326,"ECCENTRICITY":0.00021853,"INCLINATION":86.5096,"RA_OF_ASC_NODE":303.5414,"ARG_OF_PERICENTER":118.3153,"MEAN_ANOMALY":241.8202,"EPHEMERIS_TYPE":0,"NORAD_CAT_ID":63693,"ELEMENT_SET_NO":999,"REV_AT_EPOCH":5866,"BSTAR":0.0000200677,"MEAN_MOTION_DOT":2.3e-7,"MEAN_MOTION_DDOT":0},{"OBJECT_NAME":"HULIANWANG DIGUI-27","OBJECT_ID":"2025-086H","EPOCH":"2026-07-15T22:29:22.539552","CLASSIFICATION_TYPE":"U","MEAN_MOTION":13.24412099,"ECCENTRICITY":0.00020383,"INCLINATION":86.5056,"RA_OF_ASC_NODE":303.3892,"ARG_OF_PERICENTER":114.1931,"MEAN_ANOMALY":245.9416,"EPHEMERIS_TYPE":0,"NORAD_CAT_ID":63694,"ELEMENT_SET_NO":999,"REV_AT_EPOCH":5866,"BSTAR":0.000082654429,"MEAN_MOTION_DOT":5e-7,"MEAN_MOTION_DDOT":0}]}
