HULIANWANG DIGUI-12     
1 62972U 25030B   26196.88710273 -.00000118  00000+0  13912-4 0  9996
2 62972  50.0015 133.0169 0000955 274.6453  85.4310 13.29322224 69671
HULIANWANG DIGUI-13     
1 62973U 25030C   26196.87030438 -.00000111  00000+0  28715-4 0  9994
2 62973  50.0018 132.9448 0000774 275.2108  84.8676 13.29324418 69671
HULIANWANG DIGUI-14     
1 62974U 25030D   26196.92048564 -.00000119  00000+0  10262-4 0  9996
2 62974  50.0024 132.5680 0000773 278.9096  81.1689 13.29327472 69686
HULIANWANG DIGUI-15     
1 62975U 25030E   26196.93715620 -.00000108  00000+0  34955-4 0  9995
2 62975  50.0019 132.6349 0000860 278.8529  81.2246 13.29324467 69682
HULIANWANG DIGUI-16     
1 62976U 25030F   26196.91221070 -.00000120  00000+0  92195-5 0  9990
2 62976  50.0041 132.5948 0000737 277.3801  82.6987 13.29325565 69689
HULIANWANG DIGUI-17     
1 62977U 25030G   26196.90375803 -.00000128  00000+0 -87717-5 0  9997
2 62977  50.0053 132.6025 0000855 269.5344  90.5430 13.29325614 69682
HULIANWANG DIGUI-18     
1 62978U 25030H   26196.89538609 -.00000115  00000+0  19665-4 0  9992
2 62978  50.0058 132.5736 0000889 269.1283  90.9487 13.29327600 69684
HULIANWANG DIGUI-19     
1 62979U 25030J   26196.92893071 -.00000118  00000+0  12651-4 0  9995
2 62979  50.0043 132.6894 0000773 267.6874  92.3910 13.29319044 69686
HULIANWANG DIGUI-20     
1 63687U 25086A   26196.95975095  .00000026  00000+0  25717-4 0  9997
2 63687  86.5067 303.4424 0002046 112.3745 247.7606 13.24411530 58682
HULIANWANG DIGUI-21     
1 63688U 25086B   26196.89178662  .00000015  00000+0  88900-6 0  9999
2 63688  86.5095 303.5308 0001977 115.6359 244.4979 13.24410184 58664
HULIANWANG DIGUI-22     
1 63689U 25086C   26196.89930759  .00000011  00000+0 -86569-5 0  9998
2 63689  86.5060 303.3866 0002090 111.9748 248.1609 13.24410516 58662
HULIANWANG DIGUI-23     
1 63690U 25086D   26196.91439312  .00000028  00000+0  31096-4 0  9993
2 63690  86.5101 303.5714 0002063 112.4839 247.6514 13.24410271 58668
HULIANWANG DIGUI-24     
1 63691U 25086E   26196.92198384  .00000030  00000+0  36031-4 0  9993
2 63691  86.5108 303.6041 0002024 114.8079 245.3265 13.24410923 58661
HULIANWANG DIGUI-25     
1 63692U 25086F   26196.92953886  .00000049  00000+0  80119-4 0  9996
2 63692  86.5047 303.3452 0001973 112.2675 247.8668 13.24410276 58668
HULIANWANG DIGUI-26     
1 63693U 25086G   26196.90684138  .00000023  00000+0  20068-4 0  9995
2 63693  86.5096 303.5414 0002185 118.3153 241.8202 13.24409326 58669
HULIANWANG DIGUI-27     
1 63694U 25086H   26196.93706643  .00000050  00000+0  82654-4 0  9994
2 63694  86.5056 303.3892 0002038 114.1931 245.9416 13.24412099 58662
